NORAD_CAT_ID,OBJECT_NAME,OBJECT_TYPE,EPOCH,MEAN_MOTION,ECCENTRICITY,INCLINATION,RA_OF_ASC_NODE,ARG_OF_PERICENTER,MEAN_ANOMALY,BSTAR,MEAN_MOTION_DOT,MEAN_MOTION_DDOT,TLE_LINE0,TLE_LINE1,TLE_LINE2,SEMIMAJOR_AXIS,PERIOD,APOGEE,PERIGEE,DECAYED
52294.0,STARLINK-3777,PAYLOAD,2023-05-26 18:26:42,15.08843299,8.36e-05,53.2177,348.7451,72.0815,288.0268,0.00021647,3.159e-05,0.0,0 STARLINK-3777,1 52294U 22041AK  23146.76854606  .00003159  00000-0  21647-3 0  9990,2 52294  53.2177 348.7451 0000836  72.0815 288.0268 15.08843299 62057,6917.87,95.437,540.314,539.157,0.0
52294.0,STARLINK-3777,PAYLOAD,2023-05-26 20:02:05,15.08843462,8.45e-05,53.2174,348.4474,78.0855,282.0232,0.0002323,3.412e-05,0.0,0 STARLINK-3777,1 52294U 22041AK  23146.83478582  .00003412  00000-0  23230-3 0  9995,2 52294  53.2174 348.4474 0000845  78.0855 282.0232 15.08843462 60848,6917.87,95.437,540.319,539.15,0.0
52294.0,STARLINK-3777,PAYLOAD,2023-05-27 19:52:52,15.08842194,8.32e-05,53.2181,343.9862,74.0807,286.0277,8.0011e-05,9.86e-06,0.0,0 STARLINK-3777,1 52294U 22041AK  23147.82838645  .00000986  00000-0  80011-4 0  9999,2 52294  53.2181 343.9862 0000832  74.0807 286.0277 15.08842194 62213,6917.874,95.437,540.314,539.163,0.0
52294.0,STARLINK-3777,PAYLOAD,2023-05-28 19:43:39,15.08851435,8.8e-05,53.2175,339.5266,76.987,283.1221,0.00033201,5.002e-05,0.0,0 STARLINK-3777,1 52294U 22041AK  23148.82198424  .00005002  00000-0  33201-3 0  9996,2 52294  53.2175 339.5266 0000880  76.9870 283.1221 15.08851435 61145,6917.845,95.437,540.319,539.102,0.0
52294.0,STARLINK-3777,PAYLOAD,2023-05-29 05:15:58,15.08844488,9.44e-05,53.218,337.7409,82.1781,277.9319,0.00016305,2.308e-05,0.0,0 STARLINK-3777,1 52294U 22041AK  23149.21942598  .00002308  00000-0  16305-3 0  9991,2 52294  53.2180 337.7409 0000944  82.1781 277.9319 15.08844488 62422,6917.867,95.437,540.385,539.079,0.0
52294.0,STARLINK-3777,PAYLOAD,2023-05-29 16:23:40,15.08837036,9.71e-05,53.2168,335.6634,91.7553,268.355,6.0859e-06,-1.91e-06,0.0,0 STARLINK-3777,1 52294U 22041AK  23149.68311021 -.00000191  00000-0  60859-5 0  9997,2 52294  53.2168 335.6634 0000971  91.7553 268.3550 15.08837036 62497,6917.889,95.438,540.426,539.083,0.0
52294.0,STARLINK-3777,PAYLOAD,2023-05-29 19:34:26,15.08840167,8.37e-05,53.217,335.0678,92.7545,267.3543,4.7797e-05,4.73e-06,0.0,0 STARLINK-3777,1 52294U 22041AK  23149.81558816  .00000473  00000-0  47797-4 0  9994,2 52294  53.2170 335.0678 0000837  92.7545 267.3543 15.08840167 61292,6917.88,95.438,540.324,539.166,0.0
52294.0,STARLINK-3777,PAYLOAD,2023-05-30 05:06:45,15.08839695,8.2e-05,53.217,333.284,98.3151,261.7935,7.0731e-05,8.38e-06,0.0,0 STARLINK-3777,1 52294U 22041AK  23150.21302887  .00000838  00000-0  70731-4 0  9994,2 52294  53.2170 333.2840 0000820  98.3151 261.7935 15.08839695 61354,6917.881,95.438,540.314,539.179,0.0
52294.0,STARLINK-3777,PAYLOAD,2023-05-30 21:00:36,15.08848594,0.000103,53.2163,330.3111,97.9902,262.1207,2.7046e-05,1.43e-06,0.0,0 STARLINK-3777,1 52294U 22041AK  23150.87542541  .00000143  00000-0  27046-4 0  9999,2 52294  53.2163 330.3111 0001030  97.9902 262.1207 15.08848594 61454,6917.854,95.437,540.432,539.007,0.0
52294.0,STARLINK-3777,PAYLOAD,2023-05-31 11:19:05,15.08840316,8.01e-05,53.2167,327.6341,94.3552,265.7532,0.00017085,2.432e-05,0.0,0 STARLINK-3777,1 52294U 22041AK  23151.47159065  .00002432  00000-0  17085-3 0  9995,2 52294  53.2167 327.6341 0000801  94.3552 265.7532 15.08840316 62768,6917.879,95.438,540.299,539.19,0.0
52294.0,STARLINK-3777,PAYLOAD,2023-05-31 19:16:00,15.08846072,8.36e-05,53.2168,326.1467,90.7908,269.318,0.00019395,2.801e-05,0.0,0 STARLINK-3777,1 52294U 22041AK  23151.80278818  .00002801  00000-0  19395-3 0  9996,2 52294  53.2168 326.1467 0000836  90.7908 269.3180 15.08846072 61599,6917.862,95.437,540.305,539.148,0.0
52294.0,STARLINK-3777,PAYLOAD,2023-06-01 04:48:19,15.08841417,9.22e-05,53.217,324.3623,76.1887,283.9208,0.00012348,1.678e-05,0.0,0 STARLINK-3777,1 52294U 22041AK  23152.20023143  .00001678  00000-0  12348-3 0  9992,2 52294  53.2170 324.3623 0000922  76.1887 283.9208 15.08841417 61654,6917.876,95.437,540.379,539.103,0.0
52294.0,STARLINK-3777,PAYLOAD,2023-06-02 11:00:39,15.0883736,8.98e-05,53.2162,318.713,75.4519,284.6573,6.1422e-05,6.9e-06,0.0,0 STARLINK-3777,1 52294U 22041AK  23153.45879545  .00000690  00000-0  61422-4 0  9996,2 52294  53.2162 318.7130 0000898  75.4519 284.6573 15.08837360 63063,6917.888,95.438,540.375,539.132,0.0
52294.0,STARLINK-3777,PAYLOAD,2023-06-02 17:22:12,15.08841369,9.22e-05,53.2165,317.5221,88.4288,271.681,0.00012367,1.681e-05,0.0,0 STARLINK-3777,1 52294U 22041AK  23153.72375416  .00001681  00000-0  12367-3 0  9998,2 52294  53.2165 317.5221 0000922  88.4288 271.6810 15.08841369 61881,6917.876,95.437,540.379,539.103,0.0
52294.0,STARLINK-3777,PAYLOAD,2023-06-03 14:02:13,15.08837096,8.91e-05,53.2167,313.6569,81.4558,278.6535,0.00011271,1.506e-05,0.0,0 STARLINK-3777,1 52294U 22041AK  23154.58487799  .00001506  00000-0  11271-3 0  9990,2 52294  53.2167 313.6569 0000891  81.4558 278.6535 15.08837096 62012,6917.889,95.438,540.371,539.138,0.0
52294.0,STARLINK-3777,PAYLOAD,2023-06-03 17:12:59,15.08839468,8.72e-05,53.2166,313.0623,80.6282,279.4809,0.00014166,1.967e-05,0.0,0 STARLINK-3777,1 52294U 22041AK  23154.71735689  .00001967  00000-0  14166-3 0  9996,2 52294  53.2166 313.0623 0000872  80.6282 279.4809 15.08839468 63255,6917.882,95.438,540.35,539.144,0.0
52294.0,STARLINK-3777,PAYLOAD,2023-06-03 20:23:45,15.08845561,9.62e-05,53.2173,312.4673,82.4024,277.7078,9.2589e-05,1.186e-05,0.0,0 STARLINK-3777,1 52294U 22041AK  23154.84983259  .00001186  00000-0  92589-4 0  9997,2 52294  53.2173 312.4673 0000962  82.4024 277.7078 15.08845561 62052,6917.863,95.437,540.394,539.063,0.0
52294.0,STARLINK-3777,PAYLOAD,2023-06-04 13:53:00,15.08838546,9.27e-05,53.2178,309.1964,87.1859,272.924,0.00010897,1.447e-05,0.0,0 STARLINK-3777,1 52294U 22041AK  23155.57847726  .00001447  00000-0  10897-3 0  9997,2 52294  53.2178 309.1964 0000927  87.1859 272.9240 15.08838546 62167,6917.885,95.438,540.391,539.109,0.0
52294.0,STARLINK-3777,PAYLOAD,2023-06-04 17:03:46,15.08842939,9.22e-05,53.2176,308.601,85.1109,274.9988,9.2023e-05,1.177e-05,0.0,0 STARLINK-3777,1 52294U 22041AK  23155.71095491  .00001177  00000-0  92023-4 0  9999,2 52294  53.2176 308.6010 0000922  85.1109 274.9988 15.08842939 62186,6917.871,95.437,540.374,539.099,0.0
52294.0,STARLINK-3777,PAYLOAD,2023-06-05 02:36:05,15.08841568,9.23e-05,53.2174,306.8168,83.0586,277.0511,6.2777e-05,7.12e-06,0.0,0 STARLINK-3777,1 52294U 22041AK  23156.10839616  .00000712  00000-0  62777-4 0  9995,2 52294  53.2174 306.8168 0000923  83.0586 277.0511 15.08841568 63460,6917.876,95.437,540.379,539.102,0.0
52294.0,STARLINK-3777,PAYLOAD,2023-06-05 10:33:01,15.08830058,0.0001037,53.2176,305.3297,87.2581,272.8529,0.00017729,2.534e-05,0.0,0 STARLINK-3777,1 52294U 22041AK  23156.43960164  .00002534  00000-0  17729-3 0  9994,2 52294  53.2176 305.3297 0001037  87.2581 272.8529 15.08830058 63517,6917.911,95.438,540.493,539.058,0.0
52294.0,STARLINK-3777,PAYLOAD,2023-06-05 13:43:47,15.0883978,0.0001032,53.2175,304.7347,93.7545,266.3565,8.0891e-05,1e-05,0.0,0 STARLINK-3777,1 52294U 22041AK  23156.57207763  .00001000  00000-0  80891-4 0  9996,2 52294  53.2175 304.7347 0001032  93.7545 266.3565 15.08839780 62318,6917.881,95.438,540.46,539.032,0.0
52294.0,STARLINK-3777,PAYLOAD,2023-06-05 16:54:33,15.08843383,0.0001001,53.2178,304.1402,83.2187,276.8919,8.4955e-05,1.065e-05,0.0,0 STARLINK-3777,1 52294U 22041AK  23156.70455543  .00001065  00000-0  84955-4 0  9998,2 52294  53.2178 304.1402 0001001  83.2187 276.8919 15.08843383 62334,6917.87,95.437,540.428,539.043,0.0
52294.0,STARLINK-3777,PAYLOAD,2023-06-06 08:48:25,15.08836909,9.47e-05,53.2176,301.1686,89.5305,270.5796,7.5107e-05,9.08e-06,0.0,0 STARLINK-3777,1 52294U 22041AK  23157.36696020  .00000908  00000-0  75107-4 0  9992,2 52294  53.2176 301.1686 0000947  89.5305 270.5796 15.08836909 63658,6917.89,95.438,540.41,539.1,0.0
52294.0,STARLINK-3777,PAYLOAD,2023-06-06 11:59:12,15.08829034,0.000107,53.2171,300.5746,99.5195,260.5918,1.3627e-06,-2.66e-06,0.0,0 STARLINK-3777,1 52294U 22041AK  23157.49944675 -.00000266  00000-0  13627-5 0  9996,2 52294  53.2171 300.5746 0001070  99.5195 260.5918 15.08829034 62452,6917.914,95.438,540.519,539.039,0.0
52294.0,STARLINK-3777,PAYLOAD,2023-06-06 16:45:21,15.08838158,9.12e-05,53.2174,299.6813,88.219,271.8907,3.338e-05,2.44e-06,0.0,0 STARLINK-3777,1 52294U 22041AK  23157.69816052  .00000244  00000-0  33380-4 0  9997,2 52294  53.2174 299.6813 0000912  88.2190 271.8907 15.08838158 62485,6917.886,95.438,540.382,539.12,0.0
52294.0,STARLINK-3777,PAYLOAD,2023-06-07 11:49:58,15.08836771,9.52e-05,53.2176,296.1133,95.5358,264.5743,5.6417e-05,6.1e-06,0.0,0 STARLINK-3777,1 52294U 22041AK  23158.49304361  .00000610  00000-0  56417-4 0  9994,2 52294  53.2176 296.1133 0000952  95.5358 264.5743 15.08836771 62605,6917.89,95.438,540.414,539.097,0.0
52294.0,STARLINK-3777,PAYLOAD,2023-06-07 16:36:07,15.08845897,9.57e-05,53.2178,295.2208,94.567,265.5431,4.5382e-05,4.35e-06,0.0,0 STARLINK-3777,1 52294U 22041AK  23158.69175841  .00000435  00000-0  45382-4 0  9999,2 52294  53.2178 295.2208 0000957  94.5670 265.5431 15.08845897 63853,6917.862,95.437,540.389,539.065,0.0
52294.0,STARLINK-3777,PAYLOAD,2023-06-07 19:46:53,15.08847862,7.97e-05,53.2172,294.627,97.2047,262.9036,0.00012499,1.702e-05,0.0,0 STARLINK-3777,1 52294U 22041AK  23158.82423509  .00001702  00000-0  12499-3 0  9991,2 52294  53.2172 294.6270 0000797  97.2047 262.9036 15.08847862 62652,6917.856,95.437,540.273,539.17,0.0
52294.0,STARLINK-3777,PAYLOAD,2023-06-08 02:08:27,15.08836,9.78e-05,53.2164,293.4385,99.1651,260.9452,3.8904e-06,-2.26e-06,0.0,0 STARLINK-3777,1 52294U 22041AK  23159.08920192 -.00000226  00000-0  38904-5 0  9992,2 52294  53.2164 293.4385 0000978  99.1651 260.9452 15.08836000 63912,6917.893,95.438,540.434,539.081,0.0
